{"type": "FeatureCollection", "features": [{"type": "Feature", "properties": {"id": "addiscombe", "name": "Addiscombe", "sheet": "north", "idx": 234, "figure": "Figure 11.2", "in_doc": true, "area_m2": 40090, "perimeter_m": 1777, "centroid": [-0.071078, 51.381359], "bng_bounds": [534034, 166226, 534578, 166646], "source": "Croydon Local Plan 2018 Policies Map (North sheet), District Centre designation (SP2, SP3, DM4)"}, "geometry": {"type": "Polygon", "coordinates": [[[-0.0729993, 51.3800288], [-0.0728048, 51.3800513], [-0.0726647, 51.3800671], [-0.0725832, 51.3800759], [-0.0726728, 51.3804282], [-0.0719053, 51.3806468], [-0.0716994, 51.3807056], [-0.0716394, 51.3807218], [-0.0715676, 51.3807437], [-0.0715294, 51.380758], [-0.0714756, 51.380785], [-0.0713881, 51.3808404], [-0.0713579, 51.3808592], [-0.0711803, 51.3809693], [-0.0710243, 51.3810619], [-0.0705671, 51.3813389], [-0.0702533, 51.3815202], [-0.0700417, 51.3816446], [-0.0698133, 51.3817734], [-0.0695616, 51.381921], [-0.0694778, 51.381865], [-0.0694268, 51.3818346], [-0.0693174, 51.3817595], [-0.069311, 51.3817553], [-0.06917, 51.3816242], [-0.0691534, 51.3816106], [-0.069112, 51.3816292], [-0.069022, 51.3816722], [-0.0689956, 51.3816831], [-0.0690252, 51.3817052], [-0.0690502, 51.381725], [-0.0689968, 51.3817523], [-0.0688885, 51.381808], [-0.0688694, 51.3818175], [-0.0687643, 51.381869], [-0.0687177, 51.3818921], [-0.0685693, 51.3819493], [-0.068546, 51.3819603], [-0.0685362, 51.3819639], [-0.0685229, 51.3819662], [-0.0684923, 51.3819699], [-0.0684196, 51.3819756], [-0.068381, 51.3819791], [-0.0683137, 51.3819856], [-0.0682414, 51.3819927], [-0.0681802, 51.3820031], [-0.0681599, 51.3820139], [-0.0681216, 51.3820329], [-0.0680951, 51.3820132], [-0.068073, 51.3819956], [-0.068043, 51.3819736], [-0.0679369, 51.3818913], [-0.0678448, 51.3819366], [-0.0676341, 51.3820407], [-0.0675875, 51.3820634], [-0.0675144, 51.3821003], [-0.0678415, 51.3823531], [-0.0677832, 51.3823652], [-0.0677442, 51.3823747], [-0.0677077, 51.3823864], [-0.0676722, 51.3823999], [-0.0676371, 51.3824144], [-0.0676155, 51.3824227], [-0.0676851, 51.3824794], [-0.0677169, 51.3825059], [-0.067731, 51.3825188], [-0.0678503, 51.3826242], [-0.0679032, 51.3826698], [-0.0679775, 51.3827351], [-0.0679838, 51.3827407], [-0.0679965, 51.3827523], [-0.0680198, 51.3827416], [-0.0680508, 51.3827271], [-0.0680642, 51.382722], [-0.0681116, 51.3827649], [-0.0681152, 51.3827644], [-0.0681855, 51.3827325], [-0.0681933, 51.3827377], [-0.0683107, 51.3826848], [-0.0684652, 51.3826156], [-0.0685902, 51.3825607], [-0.0686552, 51.3825344], [-0.0690791, 51.3829418], [-0.0691622, 51.382906], [-0.0692154, 51.3828821], [-0.0693664, 51.3828126], [-0.0695774, 51.3827139], [-0.0696426, 51.3827693], [-0.0696894, 51.3828132], [-0.0697663, 51.3828906], [-0.0698205, 51.3828639], [-0.0698428, 51.3828535], [-0.0698699, 51.3828368], [-0.0699224, 51.382805], [-0.0699786, 51.3827707], [-0.070039, 51.382734], [-0.0700796, 51.3827096], [-0.0700692, 51.3827018], [-0.0700823, 51.3826935], [-0.070139, 51.3826588], [-0.0701982, 51.3826233], [-0.0702623, 51.3825847], [-0.0702976, 51.3825631], [-0.0702883, 51.382555], [-0.0703097, 51.3825417], [-0.0703659, 51.3825068], [-0.070419, 51.382474], [-0.0704752, 51.3824388], [-0.0704976, 51.3824249], [-0.0705135, 51.3823973], [-0.0705173, 51.3823913], [-0.0705321, 51.3823668], [-0.0705593, 51.3823222], [-0.0705799, 51.382288], [-0.0705598, 51.3822851], [-0.070569, 51.3822707], [-0.0705949, 51.3822219], [-0.0706195, 51.3821792], [-0.0706353, 51.3821524], [-0.0706244, 51.3821459], [-0.0705459, 51.3820967], [-0.0705345, 51.3820895], [-0.070493, 51.3820635], [-0.0704539, 51.3820416], [-0.0704026, 51.3820077], [-0.0703513, 51.3819736], [-0.0706118, 51.3818301], [-0.0707128, 51.3817451], [-0.0708218, 51.3816844], [-0.0708675, 51.3816582], [-0.070908, 51.3816354], [-0.0709916, 51.3815879], [-0.071026, 51.3815673], [-0.0710577, 51.3815481], [-0.071119, 51.381512], [-0.0711222, 51.3815098], [-0.0711877, 51.3814697], [-0.0712471, 51.3814329], [-0.0712933, 51.3814057], [-0.0713745, 51.3813557], [-0.0715005, 51.3812788], [-0.0716394, 51.3811945], [-0.0717229, 51.3811746], [-0.07181, 51.3811262], [-0.0718572, 51.381113], [-0.0718999, 51.3810867], [-0.0719256, 51.3811027], [-0.071951, 51.3811238], [-0.0719988, 51.3811588], [-0.0720465, 51.3811939], [-0.0720671, 51.3812094], [-0.0721227, 51.3812503], [-0.0722643, 51.381246], [-0.0723811, 51.3812419], [-0.0724232, 51.381241], [-0.0724247, 51.3812411], [-0.072245, 51.3809935], [-0.0722235, 51.3809636], [-0.0722206, 51.3809597], [-0.0723355, 51.3809274], [-0.0725284, 51.3808741], [-0.0726812, 51.3808332], [-0.07288, 51.380794], [-0.0731368, 51.3807398], [-0.0731421, 51.380685], [-0.0731453, 51.3806349], [-0.0733584, 51.3805702], [-0.0733985, 51.3805566], [-0.0736928, 51.3804536], [-0.0737705, 51.3804263], [-0.0738014, 51.3804147], [-0.073843, 51.3804012], [-0.0740044, 51.3803492], [-0.0740358, 51.3803387], [-0.0740656, 51.3803278], [-0.0740929, 51.3803184], [-0.0741217, 51.3803081], [-0.07415, 51.3802983], [-0.0741757, 51.3802893], [-0.0742045, 51.380279], [-0.0742302, 51.3802705], [-0.0742586, 51.3802599], [-0.0742863, 51.3802502], [-0.0743419, 51.3802295], [-0.0742977, 51.380186], [-0.0742924, 51.3801802], [-0.0742524, 51.380142], [-0.0743334, 51.3801082], [-0.0743845, 51.3800871], [-0.074419, 51.3800728], [-0.0744127, 51.380067], [-0.0744396, 51.380056], [-0.0744936, 51.3800341], [-0.0745813, 51.3800006], [-0.0746508, 51.3799732], [-0.074645, 51.3799674], [-0.074733, 51.3799355], [-0.074762, 51.3799233], [-0.0748964, 51.3798716], [-0.0749057, 51.3798683], [-0.0750751, 51.3798057], [-0.0750355, 51.3797584], [-0.0750182, 51.3797359], [-0.0751717, 51.3796658], [-0.0753165, 51.3795996], [-0.0754402, 51.3795496], [-0.0751973, 51.3792614], [-0.0744288, 51.3796107], [-0.0743333, 51.379664], [-0.074258, 51.3797069], [-0.0741104, 51.3796829], [-0.0740847, 51.3796793], [-0.0738538, 51.3796482], [-0.073799, 51.3796391], [-0.0737623, 51.3796314], [-0.0736777, 51.379678], [-0.0735919, 51.3797283], [-0.0734938, 51.3797835], [-0.0734112, 51.3798313], [-0.073392, 51.3798303], [-0.073385, 51.3799257], [-0.0733847, 51.3800034], [-0.0733888, 51.3800983], [-0.0733849, 51.3801912], [-0.0732201, 51.3802656], [-0.0730218, 51.3803388], [-0.0730084, 51.3802589], [-0.0730074, 51.3802351], [-0.0729943, 51.3801603], [-0.0729906, 51.3801152], [-0.0729993, 51.3800288]]]}}, {"type": "Feature", "properties": {"id": "coulsdon", "name": "Coulsdon", "sheet": "south", "idx": 14, "figure": "Figure 11.4", "in_doc": true, "area_m2": 101371, "perimeter_m": 1879, "centroid": [-0.138527, 51.320626], "bng_bounds": [529590, 159321, 530044, 159870], "source": "Croydon Local Plan 2018 Policies Map (South sheet), District Centre designation (SP2, SP3, DM4)"}, "geometry": {"type": "Polygon", "coordinates": [[[-0.1415049, 51.3191037], [-0.141701, 51.3190367], [-0.1417452, 51.31902], [-0.1417015, 51.3189745], [-0.1415467, 51.3188724], [-0.1415372, 51.3188679], [-0.1415337, 51.3188662], [-0.1415248, 51.3188607], [-0.1415204, 51.3188578], [-0.141512, 51.3188523], [-0.1415081, 51.318849], [-0.1414905, 51.3188332], [-0.1414881, 51.3188296], [-0.1414547, 51.3187911], [-0.1413868, 51.3187183], [-0.1413832, 51.3186964], [-0.1413412, 51.3186059], [-0.1413037, 51.3185209], [-0.141281, 51.3184799], [-0.1411853, 51.3183284], [-0.1411359, 51.3182743], [-0.1411272, 51.318263], [-0.141119, 51.3182413], [-0.1411171, 51.3182385], [-0.1411157, 51.3182353], [-0.1411133, 51.3182318], [-0.1410915, 51.3182343], [-0.140996, 51.3182419], [-0.1407261, 51.3182916], [-0.140712, 51.3183272], [-0.1406721, 51.3183377], [-0.14064, 51.3183442], [-0.1406232, 51.3183461], [-0.1405998, 51.3183489], [-0.1405754, 51.3183505], [-0.1405521, 51.3183513], [-0.1405278, 51.3183519], [-0.1405156, 51.3183517], [-0.1404848, 51.3183503], [-0.1404546, 51.3183469], [-0.1404243, 51.3183433], [-0.1403997, 51.3183403], [-0.1403755, 51.3183365], [-0.1403368, 51.3183305], [-0.1403217, 51.3183283], [-0.1403076, 51.3183259], [-0.140288, 51.3183224], [-0.1402852, 51.3182782], [-0.139914, 51.318318], [-0.1397832, 51.318361], [-0.1397078, 51.3183864], [-0.1396585, 51.3184031], [-0.1396416, 51.3184089], [-0.1395507, 51.3184391], [-0.139504, 51.3184553], [-0.1394393, 51.3184767], [-0.1394255, 51.3185064], [-0.1393477, 51.31854], [-0.1389691, 51.3187643], [-0.1388846, 51.3187982], [-0.1388813, 51.3188048], [-0.1386556, 51.3189897], [-0.1386027, 51.3190222], [-0.1385462, 51.3190542], [-0.1385319, 51.3190565], [-0.1385288, 51.3190593], [-0.1384512, 51.3191003], [-0.1384899, 51.3191307], [-0.1386399, 51.3192286], [-0.1386934, 51.3192716], [-0.138764, 51.3193267], [-0.138844, 51.3193895], [-0.1387828, 51.31955], [-0.1387249, 51.3195796], [-0.1386712, 51.3196066], [-0.1386158, 51.3196356], [-0.1385605, 51.3196632], [-0.1384824, 51.3197042], [-0.1384687, 51.3197424], [-0.1384466, 51.3198023], [-0.1383917, 51.3199569], [-0.1383661, 51.3200263], [-0.1383533, 51.3200673], [-0.1382249, 51.3200519], [-0.1379488, 51.3200174], [-0.1378837, 51.3200122], [-0.1378527, 51.3200279], [-0.1378297, 51.3200835], [-0.1377806, 51.3201972], [-0.1377746, 51.3202053], [-0.1377588, 51.3202463], [-0.1377359, 51.3202983], [-0.1377237, 51.3203266], [-0.1377048, 51.3203666], [-0.137702, 51.3203733], [-0.1376956, 51.3203817], [-0.1376745, 51.3204163], [-0.1376681, 51.3204222], [-0.1376404, 51.3204567], [-0.1375991, 51.320503], [-0.1375613, 51.3204738], [-0.1375039, 51.3205157], [-0.1374074, 51.3205853], [-0.1373944, 51.3205924], [-0.1372346, 51.3206761], [-0.1369532, 51.3208245], [-0.1369532, 51.3208242], [-0.1369181, 51.3208401], [-0.1369083, 51.3208321], [-0.1368535, 51.32086], [-0.1367952, 51.3208883], [-0.1367078, 51.320932], [-0.1366282, 51.3209726], [-0.1364947, 51.3210434], [-0.1364425, 51.321082], [-0.1363889, 51.3211211], [-0.1363371, 51.3211596], [-0.1362829, 51.3211987], [-0.1362276, 51.3212394], [-0.1362429, 51.3212492], [-0.1361917, 51.321287], [-0.1361684, 51.3212743], [-0.1360981, 51.321323], [-0.1360512, 51.3213562], [-0.1359298, 51.3214408], [-0.135772, 51.3213508], [-0.135632, 51.3212676], [-0.1354876, 51.3211854], [-0.1352955, 51.3210755], [-0.1351615, 51.3209855], [-0.13516, 51.3215114], [-0.135123, 51.3226088], [-0.1351503, 51.3226235], [-0.1351702, 51.3226327], [-0.1351974, 51.3226465], [-0.13524, 51.3226703], [-0.1353065, 51.3227041], [-0.1353659, 51.322738], [-0.1355092, 51.3228117], [-0.1355137, 51.322813], [-0.1356238, 51.3228827], [-0.1356409, 51.3228728], [-0.1356739, 51.3228574], [-0.1357102, 51.3228761], [-0.1357548, 51.3229], [-0.1357632, 51.3229045], [-0.1359896, 51.3230265], [-0.1361031, 51.3230882], [-0.1361089, 51.3230829], [-0.136147, 51.3230543], [-0.1361736, 51.3230345], [-0.1362504, 51.3229776], [-0.1363156, 51.3229292], [-0.1364477, 51.3228301], [-0.1365602, 51.3227529], [-0.1367151, 51.322754], [-0.1367154, 51.3227322], [-0.1367178, 51.3226881], [-0.1367301, 51.3226192], [-0.1367571, 51.3225901], [-0.1368689, 51.3224694], [-0.1369652, 51.322365], [-0.1370921, 51.3222213], [-0.1371716, 51.3222325], [-0.1373801, 51.3222612], [-0.1374437, 51.322266], [-0.137635, 51.3222798], [-0.1378847, 51.3222888], [-0.1381213, 51.3222863], [-0.1383074, 51.3222797], [-0.1385221, 51.3222657], [-0.1384729, 51.3221691], [-0.138398, 51.3220419], [-0.1383719, 51.3219984], [-0.1383282, 51.3219263], [-0.1383092, 51.3218353], [-0.1382956, 51.3218208], [-0.1382689, 51.3217902], [-0.1381906, 51.3216995], [-0.1381442, 51.3216448], [-0.138214, 51.3216209], [-0.1382489, 51.3216094], [-0.1382736, 51.3216006], [-0.1383408, 51.3215782], [-0.1383734, 51.3215504], [-0.1384218, 51.3215293], [-0.1384813, 51.3215087], [-0.1385399, 51.3214887], [-0.1385979, 51.3214684], [-0.13862, 51.3214601], [-0.1386574, 51.321448], [-0.1387036, 51.3214326], [-0.1387206, 51.3214268], [-0.1390919, 51.3213214], [-0.1391052, 51.3213174], [-0.1392051, 51.3212896], [-0.1393962, 51.3215102], [-0.1396221, 51.3214323], [-0.1397618, 51.321385], [-0.1401702, 51.3212503], [-0.1403183, 51.3212054], [-0.1404275, 51.3211852], [-0.1405333, 51.3211726], [-0.140639, 51.3211756], [-0.1406455, 51.3211284], [-0.1406516, 51.3210895], [-0.1406547, 51.3210743], [-0.1406581, 51.3210416], [-0.1406998, 51.320673], [-0.140721, 51.3204745], [-0.1407419, 51.3202692], [-0.1407557, 51.320042], [-0.1411353, 51.3199303], [-0.1411034, 51.3198819], [-0.1410169, 51.3197546], [-0.1409992, 51.3197277], [-0.1409818, 51.3196953], [-0.1409512, 51.3196377], [-0.1409392, 51.319609], [-0.1409397, 51.319597], [-0.1409404, 51.3195913], [-0.1409417, 51.3195846], [-0.1409445, 51.3195783], [-0.1409468, 51.319572], [-0.1409516, 51.3195645], [-0.1409565, 51.3195576], [-0.1409638, 51.319551], [-0.1409722, 51.3195432], [-0.1409822, 51.319537], [-0.140993, 51.3195312], [-0.1410033, 51.3195263], [-0.1410141, 51.3195223], [-0.1410264, 51.3195184], [-0.1410827, 51.3195027], [-0.1411452, 51.3194857], [-0.1411467, 51.3194854], [-0.1412071, 51.3194695], [-0.1412675, 51.319454], [-0.1412916, 51.3194474], [-0.1413944, 51.3194208], [-0.1414553, 51.3194046], [-0.1415162, 51.3193882], [-0.1415781, 51.319372], [-0.14164, 51.3193555], [-0.1417321, 51.319331], [-0.1416946, 51.3193066], [-0.1416842, 51.3193014], [-0.1415994, 51.3192077], [-0.1415049, 51.3191037]]]}}, {"type": "Feature", "properties": {"id": "crystal-palace", "name": "Crystal Palace (Upper Norwood)", "sheet": "north", "idx": 233, "figure": "Figure 11.7", "in_doc": true, "note": "Croydon's part only. The wider Crystal Palace centre continues into Bromley, Lambeth and Southwark, which the Croydon Policies Map does not cover.", "area_m2": 83926, "perimeter_m": 1463, "centroid": [-0.081731, 51.41842], "bng_bounds": [533318, 170335, 533708, 170736], "source": "Croydon Local Plan 2018 Policies Map (North sheet), District Centre designation (SP2, SP3, DM4)"}, "geometry": {"type": "Polygon", "coordinates": [[[-0.078667, 51.4198303], [-0.0786854, 51.4198271], [-0.078714, 51.4198219], [-0.0787631, 51.4198144], [-0.078812, 51.4198082], [-0.0788528, 51.4198051], [-0.0789002, 51.4197986], [-0.0789553, 51.4197919], [-0.0790205, 51.4197857], [-0.079096, 51.4197767], [-0.0792796, 51.4197541], [-0.0794317, 51.4197331], [-0.0794816, 51.4197276], [-0.0796284, 51.4197116], [-0.0797838, 51.4196954], [-0.0798943, 51.419687], [-0.0800518, 51.4196817], [-0.0801905, 51.4196789], [-0.0802128, 51.4196777], [-0.0802686, 51.4196786], [-0.0803467, 51.4196792], [-0.0804243, 51.4196811], [-0.0805276, 51.4196844], [-0.0806208, 51.4196891], [-0.080724, 51.4196968], [-0.0808241, 51.4197048], [-0.080984, 51.4197157], [-0.0811448, 51.4197291], [-0.081302, 51.4197431], [-0.0813506, 51.4197464], [-0.0814321, 51.4197503], [-0.0815742, 51.4197618], [-0.0818643, 51.4197898], [-0.0819285, 51.4197937], [-0.0820602, 51.4198006], [-0.0821194, 51.4198028], [-0.0821453, 51.4198029], [-0.0822154, 51.4198012], [-0.0823063, 51.4197986], [-0.0823348, 51.4197968], [-0.0823954, 51.4197924], [-0.0824713, 51.4197851], [-0.0825472, 51.4197775], [-0.0827087, 51.4197627], [-0.0828697, 51.4197463], [-0.0830061, 51.4197348], [-0.0830321, 51.419734], [-0.0830767, 51.4197353], [-0.0831207, 51.4197374], [-0.0831653, 51.4197384], [-0.083216, 51.4197392], [-0.0832318, 51.419737], [-0.0832508, 51.4197331], [-0.0833752, 51.419706], [-0.0834648, 51.4196878], [-0.0840622, 51.4195615], [-0.0839425, 51.419353], [-0.0839275, 51.4193356], [-0.08392, 51.4193206], [-0.0838314, 51.4191586], [-0.0838026, 51.4191077], [-0.0837372, 51.4189854], [-0.0837028, 51.4189224], [-0.0836665, 51.4188545], [-0.083658, 51.4188395], [-0.083578, 51.4186799], [-0.0834771, 51.4187023], [-0.0834443, 51.4187094], [-0.0834299, 51.4187133], [-0.0832353, 51.4187567], [-0.0831754, 51.41877], [-0.0831524, 51.4187262], [-0.0831448, 51.4187118], [-0.0831359, 51.4186955], [-0.0831322, 51.4186859], [-0.0830861, 51.4186007], [-0.0830799, 51.4185908], [-0.0830561, 51.4185517], [-0.0831243, 51.418536], [-0.0832093, 51.4185165], [-0.0832611, 51.4185046], [-0.0833445, 51.4184882], [-0.0833747, 51.4184811], [-0.0836191, 51.4184232], [-0.0835534, 51.4183083], [-0.0834282, 51.4180877], [-0.0834083, 51.4180531], [-0.0833711, 51.4179963], [-0.0833968, 51.4179888], [-0.0838759, 51.4178517], [-0.0838657, 51.4178423], [-0.0838074, 51.4177684], [-0.0836927, 51.4176237], [-0.0838513, 51.4175781], [-0.0836887, 51.4172931], [-0.0836743, 51.4172751], [-0.0836845, 51.4172607], [-0.0836539, 51.4172291], [-0.0836379, 51.4172333], [-0.0832184, 51.4170636], [-0.083213, 51.4170594], [-0.0829783, 51.4169572], [-0.0829369, 51.4169391], [-0.0828701, 51.4169101], [-0.0828582, 51.4169048], [-0.0828523, 51.4169003], [-0.0828438, 51.4168957], [-0.0827684, 51.4168548], [-0.0826584, 51.4167931], [-0.0826117, 51.4167682], [-0.0825745, 51.4167482], [-0.082563, 51.4167563], [-0.0825091, 51.4167354], [-0.0824526, 51.4167158], [-0.0822191, 51.4166336], [-0.0819746, 51.4165477], [-0.0818316, 51.4164978], [-0.081756, 51.4164718], [-0.0816556, 51.4165923], [-0.0815754, 51.4165685], [-0.0815655, 51.4165639], [-0.081392, 51.4165027], [-0.081299, 51.4164703], [-0.081273, 51.4164617], [-0.0812405, 51.4164504], [-0.0812204, 51.4164437], [-0.0811699, 51.4164261], [-0.08112, 51.4164081], [-0.0810814, 51.4163951], [-0.0810309, 51.4163784], [-0.0810044, 51.4163691], [-0.0808883, 51.4163295], [-0.0808383, 51.4163121], [-0.0808443, 51.4163401], [-0.080884, 51.4165296], [-0.080921, 51.4166761], [-0.0809313, 51.4167578], [-0.0809451, 51.4168405], [-0.080948, 51.4169161], [-0.0809513, 51.416958], [-0.0809494, 51.4169929], [-0.080944, 51.4170229], [-0.0809329, 51.4170475], [-0.0809294, 51.4170585], [-0.0809291, 51.4170649], [-0.0809319, 51.4170709], [-0.0809357, 51.4170767], [-0.080948, 51.4170852], [-0.0809709, 51.417096], [-0.0809883, 51.4171042], [-0.081013, 51.4171217], [-0.0810271, 51.4171356], [-0.0810402, 51.4171501], [-0.0810569, 51.4171754], [-0.0810667, 51.4171953], [-0.0810852, 51.4172498], [-0.081087, 51.4172803], [-0.0810839, 51.417305], [-0.0809968, 51.417434], [-0.0809546, 51.4174853], [-0.0809034, 51.4175321], [-0.0807171, 51.4176676], [-0.0805734, 51.417769], [-0.0805493, 51.4177861], [-0.0805467, 51.4177879], [-0.0805409, 51.417792], [-0.0805185, 51.4178058], [-0.0804726, 51.4178372], [-0.0804244, 51.4178735], [-0.08038, 51.4179162], [-0.0803327, 51.4179672], [-0.080314, 51.4179891], [-0.0802079, 51.418111], [-0.0800472, 51.4183146], [-0.0798575, 51.4185545], [-0.079619, 51.4188456], [-0.0795943, 51.4188782], [-0.0795667, 51.4189073], [-0.0795419, 51.4189297], [-0.0795102, 51.4189603], [-0.0794698, 51.4189936], [-0.0794383, 51.4190184], [-0.0794052, 51.4190455], [-0.0793673, 51.4190769], [-0.0792635, 51.4191561], [-0.0787719, 51.4195316], [-0.0784359, 51.4197884], [-0.0785238, 51.4198457], [-0.0785357, 51.4198523], [-0.0785455, 51.4198597], [-0.0785576, 51.4198745], [-0.0785806, 51.4198581], [-0.0785935, 51.4198529], [-0.0786074, 51.4198493], [-0.078667, 51.4198303]]]}}, {"type": "Feature", "properties": {"id": "new-addington", "name": "New Addington", "sheet": "south", "idx": 13, "figure": "Figure 11.1", "in_doc": true, "area_m2": 65499, "perimeter_m": 1028, "centroid": [-0.015304, 51.34124], "bng_bounds": [538188, 161965, 538506, 162285], "source": "Croydon Local Plan 2018 Policies Map (South sheet), District Centre designation (SP2, SP3, DM4)"}, "geometry": {"type": "Polygon", "coordinates": [[[-0.0143576, 51.3419773], [-0.0144132, 51.3420141], [-0.014465, 51.3420464], [-0.0145168, 51.3420783], [-0.0145519, 51.3420995], [-0.0145854, 51.342121], [-0.0146253, 51.3421468], [-0.0146643, 51.3421721], [-0.0148282, 51.3422825], [-0.0148396, 51.3422871], [-0.0148511, 51.3422911], [-0.0148537, 51.3422921], [-0.0148561, 51.3422931], [-0.0148651, 51.3422952], [-0.0148721, 51.3422969], [-0.0148932, 51.3423045], [-0.0149016, 51.3423075], [-0.0149101, 51.3423093], [-0.0149076, 51.3423111], [-0.0149937, 51.3423446], [-0.0149995, 51.3423387], [-0.0150315, 51.3423487], [-0.0150915, 51.3423678], [-0.0151624, 51.3423922], [-0.0152029, 51.3424056], [-0.0152188, 51.3424106], [-0.0152333, 51.3424153], [-0.0152474, 51.3424184], [-0.0152599, 51.3424214], [-0.0152774, 51.3424255], [-0.0152931, 51.342429], [-0.015301, 51.342431], [-0.0153095, 51.3424331], [-0.0153242, 51.3424358], [-0.0153362, 51.3424383], [-0.0153723, 51.3424458], [-0.0154266, 51.342456], [-0.0154543, 51.3424615], [-0.0154722, 51.3424669], [-0.0154892, 51.3424716], [-0.0155063, 51.3424767], [-0.0155212, 51.3424823], [-0.0155252, 51.342484], [-0.0155402, 51.342489], [-0.0155571, 51.3424965], [-0.0155739, 51.3425047], [-0.0155918, 51.3425133], [-0.0156077, 51.3425228], [-0.0156245, 51.3425313], [-0.015627, 51.3425323], [-0.0156353, 51.3425382], [-0.0156467, 51.3425447], [-0.015661, 51.3425554], [-0.0156762, 51.3425655], [-0.0156923, 51.3425785], [-0.0157085, 51.3425905], [-0.0160006, 51.3427946], [-0.0160175, 51.3428051], [-0.0160208, 51.3428086], [-0.0160551, 51.3428349], [-0.0162237, 51.342827], [-0.0162954, 51.3428215], [-0.0165502, 51.3427741], [-0.0165825, 51.3427657], [-0.0166148, 51.3427577], [-0.0166675, 51.3427447], [-0.0167274, 51.3427298], [-0.0167921, 51.3427103], [-0.0168409, 51.342694], [-0.0168734, 51.3426806], [-0.0168933, 51.3426669], [-0.016901, 51.3426515], [-0.0169012, 51.3426357], [-0.0168968, 51.3426194], [-0.0168943, 51.3425965], [-0.0168925, 51.3425794], [-0.0168956, 51.3425658], [-0.016909, 51.3425355], [-0.0169255, 51.3425082], [-0.0169371, 51.3424853], [-0.017128, 51.3422505], [-0.0171348, 51.3422348], [-0.017183, 51.342116], [-0.0172077, 51.3420847], [-0.0172672, 51.3419823], [-0.0172716, 51.3419639], [-0.01731, 51.3418729], [-0.017314, 51.3418612], [-0.0173231, 51.3418376], [-0.0173308, 51.3418133], [-0.0173363, 51.3417928], [-0.0173406, 51.3417725], [-0.0173461, 51.341752], [-0.0173485, 51.3417314], [-0.0173514, 51.3417112], [-0.0173523, 51.3416899], [-0.0173583, 51.3416558], [-0.0173659, 51.341622], [-0.01737, 51.3415973], [-0.0173736, 51.3415723], [-0.0173771, 51.3415504], [-0.0173795, 51.3415296], [-0.0173804, 51.3415099], [-0.0173812, 51.3414902], [-0.0173797, 51.3414661], [-0.0174098, 51.341157], [-0.0172759, 51.3410656], [-0.0172296, 51.3410356], [-0.0171853, 51.3410057], [-0.0171424, 51.3409774], [-0.0171016, 51.3409494], [-0.0170519, 51.3409149], [-0.0170027, 51.3408805], [-0.016955, 51.3408483], [-0.0169078, 51.3408164], [-0.0168693, 51.3407907], [-0.0168319, 51.3407659], [-0.0168073, 51.3407493], [-0.0167847, 51.3407327], [-0.0163229, 51.3404239], [-0.0163076, 51.3404129], [-0.0162967, 51.3404063], [-0.0162889, 51.3404005], [-0.0161093, 51.3402763], [-0.0160006, 51.3402024], [-0.0158332, 51.3400908], [-0.0156475, 51.3399665], [-0.0153337, 51.3400072], [-0.0150811, 51.3400397], [-0.014833, 51.3400714], [-0.0148116, 51.3400748], [-0.014587, 51.3401031], [-0.0145814, 51.3400808], [-0.014551, 51.3399645], [-0.0145429, 51.3399377], [-0.014516, 51.3399417], [-0.0143144, 51.339962], [-0.014285, 51.3399647], [-0.01426, 51.3399668], [-0.0140809, 51.339986], [-0.0140544, 51.3399887], [-0.0140443, 51.339953], [-0.0140392, 51.3399311], [-0.0139313, 51.3399435], [-0.0137857, 51.3399582], [-0.0133402, 51.3399891], [-0.0133305, 51.3399889], [-0.0133199, 51.3399897], [-0.0133026, 51.3399913], [-0.0132913, 51.339993], [-0.0132755, 51.3399953], [-0.0132531, 51.3399993], [-0.0132351, 51.3400038], [-0.0132301, 51.3400052], [-0.0132244, 51.3400074], [-0.0132145, 51.3400117], [-0.0132027, 51.3400169], [-0.0131917, 51.3400249], [-0.0131792, 51.340032], [-0.0131723, 51.3400386], [-0.013168, 51.3400451], [-0.0131584, 51.3400678], [-0.0131522, 51.3400832], [-0.0131487, 51.3400924], [-0.0131452, 51.3401054], [-0.0131425, 51.340119], [-0.0131421, 51.3401301], [-0.0131397, 51.3401833], [-0.0131391, 51.3401973], [-0.0131335, 51.3402216], [-0.0131323, 51.340226], [-0.0131222, 51.3402385], [-0.0131071, 51.3402599], [-0.0130902, 51.3402872], [-0.0130708, 51.3403135], [-0.0130465, 51.3403492], [-0.0130206, 51.3403853], [-0.0130099, 51.3403997], [-0.0129996, 51.3404138], [-0.0129322, 51.3405072], [-0.0129227, 51.3405178], [-0.0129145, 51.3405307], [-0.0129112, 51.3405373], [-0.0129051, 51.3405493], [-0.0128928, 51.3405767], [-0.012886, 51.340593], [-0.0128787, 51.3406113], [-0.012872, 51.340634], [-0.0128717, 51.3406416], [-0.0128543, 51.3406829], [-0.0128769, 51.3406985], [-0.012897, 51.3407122], [-0.0129337, 51.3407423], [-0.0129412, 51.3407456], [-0.01325, 51.3409501], [-0.0132621, 51.3409614], [-0.0132772, 51.3409756], [-0.0132913, 51.3409897], [-0.0133074, 51.3410053], [-0.0133172, 51.341014], [-0.0133235, 51.3410205], [-0.0133325, 51.341032], [-0.0133422, 51.3410433], [-0.013348, 51.3410488], [-0.0133534, 51.3410549], [-0.0133562, 51.3410588], [-0.0133586, 51.3410632], [-0.0133614, 51.3410684], [-0.0133626, 51.3410744], [-0.0133716, 51.3410895], [-0.013388, 51.3411212], [-0.0133933, 51.3411381], [-0.0134089, 51.341165], [-0.0134209, 51.3411925], [-0.0134245, 51.3412014], [-0.0134274, 51.3412046], [-0.0134547, 51.341265], [-0.0134641, 51.341283], [-0.013485, 51.3413281], [-0.0134902, 51.3413339], [-0.0134935, 51.3413406], [-0.0135022, 51.3413502], [-0.0135103, 51.3413608], [-0.013519, 51.3413708], [-0.0135272, 51.3413814], [-0.0135716, 51.3414339], [-0.0135888, 51.3414548], [-0.0135996, 51.3414651], [-0.0136093, 51.3414761], [-0.0136165, 51.3414826], [-0.0136223, 51.34149], [-0.0136252, 51.3414922], [-0.0136281, 51.3414951], [-0.0136769, 51.3415394], [-0.0137308, 51.3415822], [-0.0137614, 51.3416005], [-0.0137722, 51.3416086], [-0.0137845, 51.3416158], [-0.0138165, 51.3416369], [-0.0138496, 51.3416578], [-0.0138807, 51.3416764], [-0.0139118, 51.341695], [-0.0139547, 51.3417221], [-0.0139981, 51.3417498], [-0.0143576, 51.3419773]]]}}, {"type": "Feature", "properties": {"id": "norbury", "name": "Norbury", "sheet": "north", "idx": 237, "figure": "Figure 11.9", "in_doc": true, "note": "Croydon's part only. The Croydon Policies Map stops at the borough boundary, and London Road continues north into Lambeth.", "area_m2": 70277, "perimeter_m": 2333, "centroid": [-0.122612, 51.410213], "bng_bounds": [530481, 169215, 530854, 169971], "source": "Croydon Local Plan 2018 Policies Map (North sheet), District Centre designation (SP2, SP3, DM4)"}, "geometry": {"type": "Polygon", "coordinates": [[[-0.1232604, 51.4102724], [-0.1231329, 51.4101029], [-0.1231148, 51.4100626], [-0.1230923, 51.4100413], [-0.1230749, 51.4100087], [-0.1230231, 51.4099717], [-0.1229729, 51.4098482], [-0.1229483, 51.4097916], [-0.1229032, 51.4096786], [-0.1229554, 51.4096673], [-0.1229611, 51.4096658], [-0.1229285, 51.4096066], [-0.122992, 51.4095927], [-0.122909, 51.4095127], [-0.1229032, 51.409506], [-0.1228847, 51.4094863], [-0.1229965, 51.4094818], [-0.1230082, 51.4094816], [-0.1230418, 51.4094796], [-0.123007, 51.4091152], [-0.1227184, 51.4091258], [-0.1226188, 51.4091299], [-0.1224841, 51.4086284], [-0.1227757, 51.4085804], [-0.1228279, 51.4085714], [-0.1227524, 51.408383], [-0.1227134, 51.4082949], [-0.1225931, 51.4083221], [-0.1225096, 51.4083401], [-0.1224894, 51.4083024], [-0.1224544, 51.408239], [-0.1224107, 51.4081558], [-0.1223926, 51.4081257], [-0.1223837, 51.4081091], [-0.1223616, 51.4080652], [-0.122332, 51.4080705], [-0.1223142, 51.408035], [-0.122304, 51.4080104], [-0.1222955, 51.4079944], [-0.1222445, 51.4078908], [-0.1222394, 51.4078917], [-0.1221978, 51.4078041], [-0.122203, 51.4078026], [-0.1222638, 51.4077902], [-0.1223293, 51.4077773], [-0.1223871, 51.4077652], [-0.1223948, 51.4077638], [-0.1224582, 51.4077511], [-0.1225241, 51.4077382], [-0.1225195, 51.4077286], [-0.1225471, 51.4077227], [-0.1225752, 51.4077172], [-0.1225854, 51.4077154], [-0.1226115, 51.4077101], [-0.1225843, 51.4076567], [-0.1225711, 51.4076324], [-0.1225526, 51.407601], [-0.1225317, 51.4075658], [-0.1225085, 51.4075257], [-0.1224227, 51.4073788], [-0.1223337, 51.4073976], [-0.1223285, 51.407388], [-0.1222666, 51.407401], [-0.1222042, 51.4074136], [-0.1221387, 51.4074272], [-0.1220768, 51.4074408], [-0.1220128, 51.407454], [-0.121957, 51.4074662], [-0.1219003, 51.4074773], [-0.1218344, 51.4073649], [-0.1217947, 51.4072938], [-0.1217838, 51.407274], [-0.1217558, 51.4072145], [-0.1220296, 51.4071551], [-0.1219936, 51.407094], [-0.121975, 51.4070648], [-0.1219524, 51.4070223], [-0.1219448, 51.4070094], [-0.1219632, 51.4070053], [-0.121909, 51.4069061], [-0.1213937, 51.4070155], [-0.1212157, 51.407052], [-0.1211532, 51.407065], [-0.1214983, 51.4076688], [-0.1212263, 51.4077333], [-0.1210568, 51.4077731], [-0.1201141, 51.407988], [-0.120118, 51.4079925], [-0.1201209, 51.407996], [-0.1201267, 51.4080012], [-0.1201297, 51.4080028], [-0.1201332, 51.4080057], [-0.1201396, 51.4080103], [-0.1201475, 51.4080139], [-0.120156, 51.4080172], [-0.1201645, 51.4080205], [-0.120169, 51.4080225], [-0.120176, 51.4080239], [-0.120183, 51.4080262], [-0.1201836, 51.4080252], [-0.1202256, 51.4080386], [-0.1202592, 51.4080493], [-0.1202181, 51.4080997], [-0.1201982, 51.408127], [-0.120145, 51.4082001], [-0.1201224, 51.4081943], [-0.1201164, 51.4081926], [-0.1201145, 51.4081894], [-0.120112, 51.4081872], [-0.1201096, 51.4081849], [-0.1201061, 51.4081826], [-0.1201016, 51.4081813], [-0.1200981, 51.4081793], [-0.1200906, 51.4081767], [-0.1200826, 51.4081743], [-0.1200741, 51.408172], [-0.1200299, 51.4081614], [-0.1200249, 51.4081604], [-0.1200193, 51.4081593], [-0.1200142, 51.4081593], [-0.1200107, 51.4081595], [-0.1200076, 51.4081601], [-0.120005, 51.408161], [-0.1200004, 51.4081632], [-0.1199967, 51.4081663], [-0.119993, 51.4081697], [-0.1199877, 51.4081769], [-0.1199838, 51.4081845], [-0.1199804, 51.4081927], [-0.119976, 51.4082005], [-0.1199727, 51.4082084], [-0.1199688, 51.4082166], [-0.1199653, 51.4082264], [-0.1199629, 51.4082365], [-0.1199599, 51.4082469], [-0.1199586, 51.4082554], [-0.1199548, 51.4082725], [-0.1199544, 51.408282], [-0.1199545, 51.4082919], [-0.1199562, 51.4083014], [-0.1199573, 51.4083103], [-0.1199595, 51.4083189], [-0.1199622, 51.4083278], [-0.1199648, 51.4083374], [-0.1199712, 51.4083566], [-0.1199744, 51.4083648], [-0.1199776, 51.4083731], [-0.1199798, 51.4083817], [-0.1199809, 51.4083903], [-0.1199817, 51.4084075], [-0.1199804, 51.4084407], [-0.1199765, 51.4084972], [-0.1201569, 51.4085035], [-0.1204723, 51.4085178], [-0.1213294, 51.4085588], [-0.1213243, 51.4086105], [-0.1213017, 51.408776], [-0.1212744, 51.4089361], [-0.121267, 51.4089921], [-0.1212841, 51.4089972], [-0.1212819, 51.4090511], [-0.1212974, 51.4090551], [-0.1213039, 51.4090584], [-0.1213141, 51.4090678], [-0.1213203, 51.4090786], [-0.1213233, 51.4090908], [-0.1213288, 51.4091191], [-0.1213641, 51.4093103], [-0.1213819, 51.4094061], [-0.1213834, 51.4094575], [-0.1213867, 51.4094883], [-0.1213896, 51.4095544], [-0.1214695, 51.4095471], [-0.121606, 51.4095331], [-0.1216265, 51.4096029], [-0.1216398, 51.4096485], [-0.121647, 51.4096721], [-0.1216795, 51.4097944], [-0.1216939, 51.4098279], [-0.1217191, 51.409881], [-0.1217588, 51.4099023], [-0.1218353, 51.4099416], [-0.1218408, 51.4099445], [-0.1218445, 51.4099528], [-0.1218492, 51.4099608], [-0.1218544, 51.4099701], [-0.1218558, 51.4099733], [-0.121902, 51.410048], [-0.1219414, 51.4101139], [-0.1219527, 51.4101341], [-0.1219665, 51.4101562], [-0.1219798, 51.410178], [-0.1219831, 51.4101844], [-0.121998, 51.4101815], [-0.1220093, 51.4102524], [-0.1219801, 51.4102586], [-0.1219863, 51.4102676], [-0.1219949, 51.4102804], [-0.1220355, 51.4103426], [-0.1220871, 51.4104205], [-0.1221148, 51.4104622], [-0.1221391, 51.4105133], [-0.1220793, 51.4105723], [-0.1220639, 51.4105892], [-0.1220342, 51.4106227], [-0.1220288, 51.4106286], [-0.1220093, 51.4106477], [-0.121971, 51.4106908], [-0.1220728, 51.4107324], [-0.1222262, 51.4107774], [-0.122183, 51.4108281], [-0.1221424, 51.4108773], [-0.122113, 51.4109142], [-0.122035, 51.4110117], [-0.1219409, 51.4111288], [-0.1220451, 51.4111609], [-0.1220632, 51.411165], [-0.1221654, 51.4111958], [-0.1222039, 51.4112095], [-0.1223152, 51.4112417], [-0.1223347, 51.411248], [-0.1223527, 51.411254], [-0.1224364, 51.4112801], [-0.1225427, 51.4113104], [-0.1225978, 51.4113265], [-0.1227923, 51.4113848], [-0.122884, 51.411412], [-0.1230013, 51.4114472], [-0.1230264, 51.4114539], [-0.1230494, 51.4114619], [-0.1231216, 51.4114821], [-0.1231301, 51.4114845], [-0.1231436, 51.4114885], [-0.1230766, 51.4115908], [-0.1230257, 51.4116677], [-0.12295, 51.4117826], [-0.1229024, 51.4118555], [-0.1228337, 51.4119597], [-0.1227568, 51.4120765], [-0.1230904, 51.4121827], [-0.1234463, 51.4122979], [-0.1235941, 51.4123431], [-0.1239192, 51.4124326], [-0.123768, 51.4124949], [-0.1236422, 51.4125434], [-0.1236263, 51.4125482], [-0.123548, 51.412579], [-0.1234547, 51.4126146], [-0.123381, 51.4126423], [-0.1233027, 51.4126724], [-0.1232233, 51.4127026], [-0.1232353, 51.4128309], [-0.1232484, 51.4129818], [-0.1232801, 51.4133104], [-0.1232902, 51.4134339], [-0.1233394, 51.4135721], [-0.1233972, 51.4135835], [-0.1234355, 51.4135914], [-0.123516, 51.413607], [-0.1236479, 51.4136456], [-0.1238052, 51.4136935], [-0.1238703, 51.4137132], [-0.12395, 51.413737], [-0.1241182, 51.4135935], [-0.1241629, 51.4135437], [-0.124184, 51.4134981], [-0.1242404, 51.4134964], [-0.1244986, 51.4134984], [-0.1244522, 51.4133656], [-0.1245839, 51.4133481], [-0.1247116, 51.413326], [-0.1248983, 51.4132767], [-0.124908, 51.4132987], [-0.1249522, 51.4132731], [-0.1251218, 51.4131705], [-0.1250604, 51.4131213], [-0.1250388, 51.4131041], [-0.1250172, 51.413086], [-0.1250058, 51.4130776], [-0.1249931, 51.4130675], [-0.1249715, 51.4130494], [-0.1249533, 51.4130345], [-0.1249332, 51.4130187], [-0.1249091, 51.4129999], [-0.1249007, 51.4129934], [-0.1248914, 51.412985], [-0.1248866, 51.4129779], [-0.1248737, 51.4129584], [-0.1248558, 51.4129381], [-0.1248351, 51.4129099], [-0.1248208, 51.4128887], [-0.1248049, 51.4128935], [-0.1247882, 51.4128675], [-0.1247431, 51.4128792], [-0.1247353, 51.4128702], [-0.1247157, 51.4128286], [-0.1246776, 51.4127545], [-0.1246308, 51.4126851], [-0.124609, 51.4126464], [-0.1245124, 51.4125516], [-0.1242316, 51.4121509], [-0.1242018, 51.4121085], [-0.1241855, 51.4120876], [-0.1241147, 51.4120681], [-0.1240425, 51.4120482], [-0.1238586, 51.4117191], [-0.1238032, 51.4116342], [-0.1237531, 51.4115576], [-0.1239711, 51.4114998], [-0.1239392, 51.4114489], [-0.1239321, 51.411437], [-0.1239244, 51.4114248], [-0.1238833, 51.411363], [-0.1238623, 51.4113309], [-0.1238466, 51.4113062], [-0.1237797, 51.4112052], [-0.1237427, 51.4112049], [-0.1237283, 51.4111838], [-0.123714, 51.411162], [-0.1236977, 51.4111382], [-0.1236782, 51.4111068], [-0.1236696, 51.411094], [-0.1236558, 51.4110722], [-0.1236415, 51.4110501], [-0.1236257, 51.411026], [-0.1236067, 51.4109953], [-0.1235976, 51.4109812], [-0.1235833, 51.4109724], [-0.1235699, 51.4109528], [-0.1235766, 51.410951], [-0.1235441, 51.410901], [-0.1235407, 51.4108965], [-0.1235289, 51.410876], [-0.1235131, 51.4108523], [-0.1234969, 51.4108267], [-0.1234769, 51.4107952], [-0.1234616, 51.4107722], [-0.1234445, 51.4107452], [-0.123391, 51.4106635], [-0.1233987, 51.4106617], [-0.1233785, 51.4106214], [-0.1233762, 51.410616], [-0.1233631, 51.4106005], [-0.123398, 51.4105922], [-0.1234261, 51.4105857], [-0.1236803, 51.4105346], [-0.1237924, 51.4105122], [-0.1238241, 51.4105045], [-0.1239142, 51.410484], [-0.1237226, 51.4101844], [-0.1232604, 51.4102724]]]}}, {"type": "Feature", "properties": {"id": "purley", "name": "Purley", "sheet": "south", "idx": 12, "figure": "Figure 11.10", "in_doc": true, "area_m2": 120001, "perimeter_m": 1880, "centroid": [-0.116417, 51.337805], "bng_bounds": [531078, 161238, 531503, 161816], "source": "Croydon Local Plan 2018 Policies Map (South sheet), District Centre designation (SP2, SP3, DM4)"}, "geometry": {"type": "Polygon", "coordinates": [[[-0.1180467, 51.338582], [-0.1179742, 51.3385472], [-0.1178485, 51.3384872], [-0.1174633, 51.3383078], [-0.1173834, 51.3382697], [-0.1173506, 51.3382295], [-0.117336, 51.3381887], [-0.1173377, 51.3381481], [-0.1173721, 51.3380982], [-0.1174059, 51.3380534], [-0.1174122, 51.3380478], [-0.1174622, 51.3380029], [-0.1175165, 51.3379492], [-0.1175576, 51.3379111], [-0.1175987, 51.3378724], [-0.1176377, 51.3378337], [-0.1176642, 51.3378066], [-0.1176901, 51.3377794], [-0.117715, 51.3377519], [-0.1177321, 51.3377321], [-0.1177671, 51.3376924], [-0.117782, 51.3376755], [-0.1177969, 51.3376583], [-0.1178128, 51.3376414], [-0.1178238, 51.3376311], [-0.1178344, 51.3376208], [-0.1178464, 51.3376106], [-0.1180081, 51.3374609], [-0.1183346, 51.3371546], [-0.1184503, 51.3370505], [-0.1187771, 51.3367382], [-0.1190014, 51.3365305], [-0.1192039, 51.3363215], [-0.119423, 51.3361026], [-0.1196478, 51.3358828], [-0.1196859, 51.3358422], [-0.1197148, 51.335817], [-0.1196068, 51.3357699], [-0.1195634, 51.3357533], [-0.1192821, 51.3356356], [-0.1189206, 51.3354835], [-0.1186767, 51.3353806], [-0.1183525, 51.3352441], [-0.1180386, 51.3351064], [-0.1179726, 51.3351602], [-0.1179454, 51.3351814], [-0.1179124, 51.3352069], [-0.1178799, 51.3352333], [-0.1178465, 51.3352588], [-0.1177958, 51.3352957], [-0.1176941, 51.3353696], [-0.117634, 51.3354137], [-0.1175739, 51.3354584], [-0.1175144, 51.3355022], [-0.1174961, 51.3355155], [-0.1174779, 51.3355279], [-0.1174591, 51.3355413], [-0.1174106, 51.3355773], [-0.1173619, 51.3356139], [-0.1172507, 51.3356962], [-0.1171123, 51.3357993], [-0.11701, 51.3358719], [-0.1167541, 51.336049], [-0.1166051, 51.336151], [-0.116567, 51.3361776], [-0.1160815, 51.3365442], [-0.1159258, 51.3366591], [-0.1157059, 51.3368234], [-0.1152384, 51.3366134], [-0.1149688, 51.3367896], [-0.1144595, 51.3371298], [-0.1140221, 51.3374102], [-0.1136122, 51.337672], [-0.1135337, 51.3377208], [-0.1141029, 51.3380818], [-0.1142238, 51.3381589], [-0.1142766, 51.3381928], [-0.1135919, 51.338612], [-0.1136698, 51.3386633], [-0.1139144, 51.3388123], [-0.1139772, 51.3388491], [-0.1140123, 51.3388697], [-0.114085, 51.3389137], [-0.1141201, 51.3389352], [-0.1141154, 51.3389386], [-0.1141966, 51.338984], [-0.1142002, 51.3389815], [-0.1142697, 51.3390175], [-0.1142769, 51.3390142], [-0.1144885, 51.3391143], [-0.1145994, 51.3391656], [-0.114652, 51.3391928], [-0.1140147, 51.3396143], [-0.1140032, 51.3396224], [-0.1141378, 51.3397016], [-0.1141897, 51.3397323], [-0.1137839, 51.3399815], [-0.1141223, 51.3402401], [-0.1145558, 51.3400056], [-0.1149491, 51.3397895], [-0.1149926, 51.3398166], [-0.1153293, 51.339992], [-0.1154855, 51.3400742], [-0.115785, 51.3402309], [-0.1160063, 51.3400835], [-0.116191, 51.3399653], [-0.1162825, 51.3399071], [-0.1164385, 51.3398081], [-0.1166014, 51.3397149], [-0.1166595, 51.3396819], [-0.1167546, 51.3396352], [-0.1168223, 51.339602], [-0.1168543, 51.3395867], [-0.1171161, 51.3395756], [-0.1174485, 51.3395616], [-0.1175126, 51.3396271], [-0.1175716, 51.3396708], [-0.1176412, 51.3396913], [-0.1177716, 51.3397099], [-0.1179355, 51.3397274], [-0.1180259, 51.3397086], [-0.1179983, 51.3396418], [-0.1179884, 51.3395988], [-0.1179782, 51.3395628], [-0.1179684, 51.3395068], [-0.1179521, 51.3394453], [-0.1179401, 51.3394052], [-0.1179235, 51.3393541], [-0.1179086, 51.3393098], [-0.1178987, 51.3392782], [-0.1179133, 51.339255], [-0.1179174, 51.3392535], [-0.1179388, 51.3392262], [-0.117933, 51.3392068], [-0.1180476, 51.3391931], [-0.1180248, 51.3391185], [-0.1180052, 51.3390534], [-0.1180043, 51.3390493], [-0.1179888, 51.3390208], [-0.1177007, 51.3388576], [-0.1177311, 51.3388317], [-0.1178531, 51.3387341], [-0.1178576, 51.3387357], [-0.1179713, 51.3386443], [-0.1180467, 51.338582]]]}}, {"type": "Feature", "properties": {"id": "selsdon", "name": "Selsdon", "sheet": "south", "idx": 11, "figure": "Figure 11.12", "in_doc": true, "area_m2": 45809, "perimeter_m": 1430, "centroid": [-0.061665, 51.343627], "bng_bounds": [534910, 162075, 535340, 162505], "source": "Croydon Local Plan 2018 Policies Map (South sheet), District Centre designation (SP2, SP3, DM4)"}, "geometry": {"type": "Polygon", "coordinates": [[[-0.0609452, 51.3444597], [-0.0609699, 51.3444865], [-0.0610633, 51.3445886], [-0.0611884, 51.3447578], [-0.0613015, 51.344707], [-0.0613939, 51.3446657], [-0.0614863, 51.3446257], [-0.0615637, 51.3445911], [-0.0615689, 51.344589], [-0.061654, 51.3445511], [-0.0617284, 51.3445184], [-0.0618863, 51.3444375], [-0.0619591, 51.3443918], [-0.0620534, 51.3443328], [-0.0621491, 51.3442706], [-0.0622481, 51.3443157], [-0.0623444, 51.3442399], [-0.0624257, 51.3441759], [-0.0624372, 51.3441665], [-0.0625142, 51.3441085], [-0.0625319, 51.3440958], [-0.0626005, 51.344043], [-0.0626346, 51.3440264], [-0.0627065, 51.3439908], [-0.0627526, 51.3439681], [-0.0628126, 51.3439383], [-0.0628705, 51.3439097], [-0.0629057, 51.3438926], [-0.0629812, 51.3438545], [-0.0630635, 51.3438133], [-0.0630966, 51.3437967], [-0.0631593, 51.3437648], [-0.0632291, 51.3437291], [-0.0633438, 51.3436768], [-0.0633271, 51.3436638], [-0.0632198, 51.3435786], [-0.0631362, 51.3435074], [-0.0630811, 51.3434551], [-0.0630096, 51.343387], [-0.0629967, 51.3433671], [-0.0629955, 51.3433614], [-0.062992, 51.343348], [-0.0629927, 51.3433309], [-0.0629963, 51.3433176], [-0.0630014, 51.3433034], [-0.0630049, 51.3432943], [-0.0630932, 51.3431565], [-0.0631339, 51.3430943], [-0.0631436, 51.3430806], [-0.0631547, 51.3430674], [-0.0631644, 51.3430539], [-0.0631789, 51.3430351], [-0.0631929, 51.3430163], [-0.0632083, 51.3429982], [-0.0632322, 51.3429716], [-0.0632454, 51.3429588], [-0.0632549, 51.3429504], [-0.0632645, 51.3429414], [-0.0632744, 51.3429333], [-0.0632902, 51.3429202], [-0.0633226, 51.3428948], [-0.0633362, 51.3428848], [-0.0633488, 51.3428749], [-0.063364, 51.3428628], [-0.0633832, 51.3428504], [-0.063416, 51.3428309], [-0.0634601, 51.342806], [-0.0635098, 51.3427798], [-0.0636563, 51.3427045], [-0.0636677, 51.3427], [-0.0638999, 51.3425867], [-0.0640142, 51.3425303], [-0.0641678, 51.3424551], [-0.0642935, 51.3423931], [-0.0644182, 51.3423314], [-0.0642973, 51.3422421], [-0.064208, 51.3421756], [-0.0641698, 51.3421448], [-0.064108, 51.3420946], [-0.0637199, 51.3417856], [-0.0636984, 51.3417668], [-0.0636727, 51.3417658], [-0.0632769, 51.3417351], [-0.0630471, 51.3418484], [-0.06298, 51.3418809], [-0.0629672, 51.3418708], [-0.0628192, 51.3419436], [-0.0625322, 51.3420841], [-0.0621515, 51.3422704], [-0.0621481, 51.3422675], [-0.0619065, 51.3423869], [-0.0618812, 51.3423989], [-0.0621481, 51.3426387], [-0.0624678, 51.3429266], [-0.0625302, 51.3429838], [-0.0624277, 51.343036], [-0.0623479, 51.3430775], [-0.0622537, 51.3431248], [-0.0619935, 51.3432544], [-0.0619681, 51.343267], [-0.0619107, 51.3432956], [-0.0618807, 51.3433106], [-0.0618527, 51.3433247], [-0.0618491, 51.3433263], [-0.0618186, 51.3433419], [-0.0617875, 51.3433576], [-0.061756, 51.3433736], [-0.061726, 51.3433889], [-0.0616949, 51.3434043], [-0.0616633, 51.3434199], [-0.0616504, 51.3434267], [-0.0616328, 51.3434356], [-0.0616017, 51.343451], [-0.0615712, 51.3434666], [-0.0615484, 51.3434783], [-0.0615402, 51.3434823], [-0.0615086, 51.343498], [-0.0614785, 51.3435136], [-0.061447, 51.3435293], [-0.0614169, 51.3435443], [-0.0613854, 51.34356], [-0.0613564, 51.3435754], [-0.0613539, 51.3435747], [-0.0613446, 51.3435793], [-0.0612887, 51.3436073], [-0.0612426, 51.3436306], [-0.0612209, 51.343642], [-0.0611427, 51.3436803], [-0.0610408, 51.3437304], [-0.0609342, 51.3437838], [-0.0608354, 51.3438336], [-0.060735, 51.3438842], [-0.0606268, 51.3439386], [-0.0605233, 51.3439915], [-0.0604125, 51.3440467], [-0.060307, 51.3440999], [-0.0602013, 51.3441536], [-0.0600937, 51.344208], [-0.0599757, 51.3442673], [-0.0598525, 51.3443299], [-0.0597308, 51.3443911], [-0.0596025, 51.3444562], [-0.0595347, 51.34449], [-0.0595155, 51.3444998], [-0.0594777, 51.3445195], [-0.0593462, 51.3445874], [-0.0593343, 51.3445926], [-0.059239, 51.3446415], [-0.0590627, 51.3444983], [-0.0590224, 51.344517], [-0.05887, 51.3445887], [-0.0587139, 51.3446616], [-0.0585708, 51.3447294], [-0.0587004, 51.3448378], [-0.0586657, 51.344855], [-0.0585612, 51.3449056], [-0.0584268, 51.3449706], [-0.0583011, 51.3450317], [-0.0581739, 51.3450927], [-0.0581336, 51.3451123], [-0.0582567, 51.345208], [-0.0583469, 51.3452777], [-0.058371, 51.3452952], [-0.0583803, 51.345303], [-0.0583964, 51.3453172], [-0.0584023, 51.3453227], [-0.0585454, 51.3454478], [-0.0586386, 51.3455328], [-0.0590352, 51.3453525], [-0.0591143, 51.3453151], [-0.0596844, 51.3450473], [-0.0597716, 51.3450078], [-0.0603478, 51.3447388], [-0.060446, 51.3446919], [-0.0605468, 51.3446457], [-0.0605705, 51.344635], [-0.0609452, 51.3444597]]]}}, {"type": "Feature", "properties": {"id": "south-norwood", "name": "South Norwood", "sheet": "north", "idx": 235, "figure": "Figure 11.15", "in_doc": true, "area_m2": 59180, "perimeter_m": 2216, "centroid": [-0.074944, 51.39834], "bng_bounds": [533797, 168165, 534260, 168600], "source": "Croydon Local Plan 2018 Policies Map (North sheet), District Centre designation (SP2, SP3, DM4)"}, "geometry": {"type": "Polygon", "coordinates": [[[-0.0747754, 51.3968541], [-0.0745395, 51.3967959], [-0.0745023, 51.396788], [-0.0743799, 51.3967683], [-0.0743026, 51.3968926], [-0.0742341, 51.3970139], [-0.0741886, 51.3971448], [-0.0742053, 51.3971568], [-0.0742787, 51.3971739], [-0.0741742, 51.3973565], [-0.0740335, 51.3976001], [-0.0747911, 51.3977727], [-0.0749985, 51.3979059], [-0.0750483, 51.3979394], [-0.0750535, 51.3979363], [-0.075088, 51.3979591], [-0.0753033, 51.3980968], [-0.0752909, 51.3981045], [-0.0754716, 51.3982185], [-0.0755205, 51.3982514], [-0.0757627, 51.398414], [-0.0756987, 51.3984529], [-0.0754663, 51.3985909], [-0.0754037, 51.3986289], [-0.0754195, 51.3986409], [-0.0753544, 51.398681], [-0.0751275, 51.3988182], [-0.0750749, 51.3988522], [-0.0750916, 51.3988642], [-0.0748518, 51.398996], [-0.0747824, 51.3990282], [-0.0745081, 51.3991848], [-0.074358, 51.3992807], [-0.0741366, 51.399166], [-0.0739376, 51.3990635], [-0.0738596, 51.3990238], [-0.0737578, 51.3989695], [-0.0736563, 51.3989148], [-0.0735585, 51.3988625], [-0.0735149, 51.3988383], [-0.0734641, 51.3988041], [-0.07344, 51.3987869], [-0.0734198, 51.3987704], [-0.0733712, 51.3987341], [-0.0733506, 51.3987169], [-0.0733041, 51.3986771], [-0.0732875, 51.398661], [-0.0732811, 51.3986561], [-0.0733783, 51.3986485], [-0.0733671, 51.3985903], [-0.0733343, 51.3985732], [-0.0732546, 51.3985275], [-0.0732966, 51.3984936], [-0.0734985, 51.3983491], [-0.0733646, 51.3982743], [-0.0733395, 51.3982583], [-0.0732296, 51.3981931], [-0.0731999, 51.3981767], [-0.0732546, 51.3981418], [-0.0732279, 51.3981258], [-0.0730479, 51.3980159], [-0.0729356, 51.3979481], [-0.0729387, 51.3979459], [-0.0729973, 51.3979053], [-0.0728386, 51.3978069], [-0.0728595, 51.3977923], [-0.0727107, 51.3977001], [-0.0726606, 51.3977342], [-0.0726095, 51.397707], [-0.0725526, 51.3976724], [-0.0725071, 51.3976447], [-0.0725604, 51.3976075], [-0.0724412, 51.3975364], [-0.0724026, 51.3975145], [-0.0722965, 51.3975892], [-0.0719399, 51.3978441], [-0.0719854, 51.3978718], [-0.0714132, 51.3981628], [-0.0714506, 51.3981901], [-0.0714856, 51.3982141], [-0.0716899, 51.3983374], [-0.0718158, 51.3984172], [-0.0718782, 51.3984544], [-0.071936, 51.3984912], [-0.0719645, 51.3985126], [-0.0720104, 51.3985429], [-0.0720396, 51.3985614], [-0.0721098, 51.3986038], [-0.0721593, 51.3986329], [-0.0722582, 51.3986926], [-0.0723081, 51.3987232], [-0.0723695, 51.3987594], [-0.0724837, 51.3988289], [-0.0724965, 51.3988377], [-0.0725469, 51.3988705], [-0.0732799, 51.39877], [-0.0732941, 51.3987845], [-0.0733378, 51.3988176], [-0.0733881, 51.3988517], [-0.0734108, 51.3988657], [-0.0735081, 51.3989156], [-0.0736562, 51.3989871], [-0.0738022, 51.3990635], [-0.0737605, 51.3991253], [-0.0737863, 51.399139], [-0.0738368, 51.3991678], [-0.0740537, 51.3992802], [-0.0740432, 51.3992876], [-0.0740755, 51.3993043], [-0.0741355, 51.3993361], [-0.0740467, 51.3993974], [-0.0738499, 51.3995547], [-0.0736954, 51.3996591], [-0.0736599, 51.3996842], [-0.073557, 51.3997542], [-0.0734614, 51.3998208], [-0.0734015, 51.3998598], [-0.0734059, 51.3998627], [-0.0732872, 51.4000451], [-0.0731987, 51.4001826], [-0.0731385, 51.4002885], [-0.0731022, 51.4003678], [-0.0730266, 51.4005731], [-0.0730628, 51.4005791], [-0.0731028, 51.4005344], [-0.0731818, 51.4004627], [-0.0732415, 51.400418], [-0.0735921, 51.4001738], [-0.0737076, 51.4002389], [-0.0737456, 51.4002398], [-0.0740013, 51.4003833], [-0.0741853, 51.4002635], [-0.0741898, 51.4002658], [-0.0742138, 51.4002485], [-0.0742738, 51.4002821], [-0.0742958, 51.4002666], [-0.0743101, 51.4002745], [-0.074404, 51.4001532], [-0.0744015, 51.40015], [-0.074348, 51.4001206], [-0.0745304, 51.3999935], [-0.0744354, 51.3999371], [-0.0744824, 51.3999052], [-0.0744705, 51.3998986], [-0.0745112, 51.3998708], [-0.0744463, 51.3998351], [-0.0748177, 51.399589], [-0.0749718, 51.3996756], [-0.0750185, 51.399698], [-0.0751393, 51.3996118], [-0.0752368, 51.3995483], [-0.0752983, 51.3995103], [-0.0753762, 51.3994532], [-0.075421, 51.3994245], [-0.0754658, 51.3993986], [-0.0755271, 51.3993628], [-0.0755995, 51.3993183], [-0.0756702, 51.3992757], [-0.0757176, 51.3992473], [-0.0757654, 51.3992195], [-0.0757748, 51.3992136], [-0.0757951, 51.3992019], [-0.0758404, 51.3991725], [-0.0759153, 51.3991277], [-0.0759372, 51.3991141], [-0.0759919, 51.3990785], [-0.0761066, 51.3990043], [-0.076116, 51.3989981], [-0.0761838, 51.3989542], [-0.0761901, 51.3989489], [-0.076238, 51.3989186], [-0.0761828, 51.3988818], [-0.0762241, 51.3988524], [-0.0763475, 51.3987748], [-0.0763606, 51.3987658], [-0.0765187, 51.3986732], [-0.0765639, 51.3987063], [-0.0768476, 51.3985812], [-0.0769422, 51.3985019], [-0.0769329, 51.3984935], [-0.0769971, 51.3984647], [-0.077072, 51.3984054], [-0.0771424, 51.3983481], [-0.077358, 51.3984548], [-0.0774717, 51.3985131], [-0.0776914, 51.3983537], [-0.0777605, 51.3983031], [-0.0780611, 51.3981973], [-0.0780704, 51.398194], [-0.0779695, 51.3980835], [-0.0779829, 51.398079], [-0.077948, 51.3980407], [-0.0779418, 51.3980434], [-0.0778797, 51.397978], [-0.0778146, 51.3979087], [-0.0777673, 51.3978619], [-0.0776579, 51.397895], [-0.0776095, 51.3978514], [-0.0775848, 51.397825], [-0.0773715, 51.3975893], [-0.0773537, 51.3975671], [-0.0773578, 51.3975653], [-0.0774147, 51.397551], [-0.0773836, 51.3974699], [-0.0773665, 51.3974664], [-0.0773683, 51.397462], [-0.077231, 51.3974233], [-0.0771182, 51.397391], [-0.0770366, 51.3973652], [-0.0768577, 51.3973013], [-0.0767765, 51.3972677], [-0.0767329, 51.3973142], [-0.0765094, 51.3971903], [-0.0762408, 51.3970419], [-0.0761664, 51.3971821], [-0.0759537, 51.3973931], [-0.0758817, 51.3973548], [-0.075651, 51.3972333], [-0.0755881, 51.3971989], [-0.0755406, 51.397241], [-0.0754854, 51.3972296], [-0.0754703, 51.3972259], [-0.0754712, 51.3972167], [-0.075438, 51.3972095], [-0.0754179, 51.3972047], [-0.0754288, 51.3971865], [-0.0754051, 51.3971817], [-0.0752569, 51.3971507], [-0.0752936, 51.3970853], [-0.0752821, 51.3970819], [-0.0751941, 51.3970634], [-0.0751082, 51.3970448], [-0.075164, 51.3969474], [-0.075069, 51.3969265], [-0.0750344, 51.396918], [-0.0750546, 51.3968828], [-0.0749743, 51.3968643], [-0.0749678, 51.396717], [-0.0748678, 51.3966935], [-0.0747754, 51.3968541]]]}}, {"type": "Feature", "properties": {"id": "thornton-heath", "name": "Thornton Heath", "sheet": "north", "idx": 236, "figure": null, "in_doc": false, "area_m2": 78730, "perimeter_m": 2215, "centroid": [-0.098143, 51.398572], "bng_bounds": [532089, 168194, 532777, 168468], "source": "Croydon Local Plan 2018 Policies Map (North sheet), District Centre designation (SP2, SP3, DM4)"}, "geometry": {"type": "Polygon", "coordinates": [[[-0.1021379, 51.398333], [-0.1021378, 51.3983333], [-0.1021919, 51.3983145], [-0.102216, 51.3983092], [-0.1024037, 51.3982323], [-0.1024976, 51.3981942], [-0.102528, 51.398182], [-0.1026147, 51.3981453], [-0.1026012, 51.3981302], [-0.1025876, 51.3981147], [-0.1025756, 51.3980993], [-0.1025616, 51.3980819], [-0.1025486, 51.398064], [-0.1025362, 51.3980466], [-0.1024937, 51.3979819], [-0.1024866, 51.3979697], [-0.1022956, 51.3977449], [-0.1019757, 51.397399], [-0.1019036, 51.3974254], [-0.1017157, 51.3974928], [-0.1016978, 51.3974976], [-0.1016596, 51.3975138], [-0.1015963, 51.3975353], [-0.1015536, 51.3975625], [-0.1014971, 51.3975803], [-0.101475, 51.3975879], [-0.1013701, 51.3976214], [-0.1012596, 51.3976573], [-0.1012159, 51.3976722], [-0.1011927, 51.3976797], [-0.1011413, 51.3976963], [-0.1011151, 51.3977051], [-0.1010411, 51.3977293], [-0.1010662, 51.3977592], [-0.1008118, 51.3978534], [-0.1007078, 51.3978904], [-0.1006846, 51.3978986], [-0.1006023, 51.3979281], [-0.1005507, 51.3978758], [-0.1004755, 51.3979029], [-0.1002205, 51.397999], [-0.1001818, 51.3980142], [-0.1001664, 51.3980193], [-0.1000204, 51.3980671], [-0.0998045, 51.3981366], [-0.0997217, 51.3980788], [-0.099566, 51.3979693], [-0.0995059, 51.3979277], [-0.0994737, 51.3979443], [-0.0993944, 51.3979865], [-0.0993841, 51.3979908], [-0.0993634, 51.3980019], [-0.0993483, 51.3980099], [-0.0993172, 51.3980265], [-0.0993053, 51.3980323], [-0.0992892, 51.3980406], [-0.099269, 51.3980511], [-0.0992529, 51.3980591], [-0.0992161, 51.3980791], [-0.0992077, 51.3980736], [-0.0991557, 51.3981042], [-0.0989442, 51.398227], [-0.0989271, 51.3982369], [-0.0989167, 51.3982427], [-0.0988477, 51.398279], [-0.0987435, 51.3982114], [-0.098669, 51.3982485], [-0.0986099, 51.3982787], [-0.0985462, 51.3983113], [-0.0985353, 51.3983165], [-0.0984845, 51.398342], [-0.0984245, 51.3983724], [-0.0984402, 51.3983828], [-0.0983783, 51.3984091], [-0.0983861, 51.3984156], [-0.0983232, 51.3984409], [-0.0983286, 51.3984445], [-0.0983471, 51.3984644], [-0.0983781, 51.3984989], [-0.0983408, 51.3985173], [-0.0982813, 51.3985458], [-0.0982353, 51.3985679], [-0.0981966, 51.39856], [-0.098185, 51.3985582], [-0.0980272, 51.3985224], [-0.0980166, 51.3985209], [-0.0979815, 51.3985121], [-0.0978965, 51.3984949], [-0.0979179, 51.3984064], [-0.0978346, 51.3983968], [-0.0977847, 51.3983903], [-0.0975648, 51.3983607], [-0.0975401, 51.3983574], [-0.0974978, 51.3983517], [-0.0974826, 51.3983498], [-0.0973453, 51.398334], [-0.0972876, 51.3983067], [-0.0972408, 51.3982872], [-0.0971481, 51.398246], [-0.0970386, 51.398197], [-0.0970219, 51.3982104], [-0.0967149, 51.3980794], [-0.0964972, 51.3979845], [-0.0963168, 51.397908], [-0.0962349, 51.3978769], [-0.0962195, 51.3978941], [-0.0961892, 51.3979272], [-0.0961589, 51.39796], [-0.0961281, 51.3979928], [-0.0960979, 51.3980247], [-0.0960672, 51.3980562], [-0.096036, 51.3980874], [-0.0960079, 51.3981152], [-0.0959789, 51.3981424], [-0.0959494, 51.3981692], [-0.0959188, 51.3981978], [-0.0958877, 51.3982256], [-0.0956955, 51.3983985], [-0.0956222, 51.3983662], [-0.0955311, 51.3983254], [-0.0954599, 51.3982929], [-0.0953708, 51.3982524], [-0.0953415, 51.3982395], [-0.0953287, 51.3982527], [-0.0952869, 51.3982348], [-0.0952561, 51.3982686], [-0.0951887, 51.3982421], [-0.0951134, 51.3982123], [-0.0950206, 51.3981756], [-0.0949896, 51.3981637], [-0.0949176, 51.3981387], [-0.094862, 51.3981956], [-0.0947842, 51.3981648], [-0.0947577, 51.3981542], [-0.0946639, 51.3981181], [-0.0944668, 51.3980407], [-0.0944987, 51.3980165], [-0.0944535, 51.3979935], [-0.0944039, 51.3979686], [-0.0941709, 51.3978522], [-0.0940291, 51.3977607], [-0.093793, 51.3976208], [-0.0937855, 51.3976061], [-0.0937838, 51.3976], [-0.0936711, 51.3975405], [-0.0936488, 51.3975284], [-0.0936279, 51.3975179], [-0.0935446, 51.3974724], [-0.0935173, 51.3974593], [-0.0934744, 51.397404], [-0.0934082, 51.3973639], [-0.0933639, 51.3973318], [-0.0933013, 51.3972864], [-0.0932712, 51.3972929], [-0.0930814, 51.3973437], [-0.0930029, 51.3973646], [-0.0929916, 51.3973676], [-0.0929899, 51.3973616], [-0.092891, 51.3973742], [-0.0927631, 51.3973874], [-0.0927716, 51.3974383], [-0.0927662, 51.3974829], [-0.093072, 51.3976414], [-0.0930507, 51.3976538], [-0.0929949, 51.3976909], [-0.0929654, 51.3977434], [-0.0929608, 51.3980241], [-0.0930451, 51.3980461], [-0.0930942, 51.398059], [-0.0932745, 51.3981755], [-0.093354, 51.3982269], [-0.0934701, 51.3983021], [-0.0935541, 51.3983529], [-0.0936673, 51.3984252], [-0.0935835, 51.3984762], [-0.0936511, 51.398508], [-0.0938885, 51.3986175], [-0.0939655, 51.3986553], [-0.093983, 51.3986616], [-0.0940626, 51.3987003], [-0.0941074, 51.3987201], [-0.0941826, 51.3987527], [-0.0942492, 51.3986989], [-0.0943236, 51.3987153], [-0.0943604, 51.3987324], [-0.0943536, 51.3987383], [-0.0943953, 51.3987609], [-0.094498, 51.3987905], [-0.0945727, 51.3988107], [-0.0947443, 51.3988557], [-0.0948693, 51.398887], [-0.0949666, 51.3989114], [-0.095177, 51.3989989], [-0.0952538, 51.3990315], [-0.0953355, 51.3989554], [-0.095461, 51.399013], [-0.0958066, 51.3991652], [-0.0958219, 51.3991502], [-0.0958648, 51.3991077], [-0.0959082, 51.3990634], [-0.09596, 51.3990125], [-0.0960018, 51.3989704], [-0.096162, 51.3990203], [-0.0962887, 51.3990598], [-0.0963644, 51.3990832], [-0.0963249, 51.3991416], [-0.0962744, 51.3992093], [-0.0962324, 51.3992685], [-0.0962041, 51.3993007], [-0.0961893, 51.3993167], [-0.0961601, 51.3993483], [-0.09615, 51.3993595], [-0.0963647, 51.3994284], [-0.0964269, 51.3994455], [-0.0965131, 51.3994707], [-0.0965241, 51.3994741], [-0.0965166, 51.3994838], [-0.0965846, 51.3995173], [-0.0965951, 51.3995231], [-0.096657, 51.3994731], [-0.0966795, 51.3994563], [-0.0967083, 51.3994349], [-0.0967182, 51.3994265], [-0.0967682, 51.3993848], [-0.0968118, 51.3993484], [-0.0969121, 51.3992659], [-0.0969835, 51.3992071], [-0.0970302, 51.3991689], [-0.097057, 51.3991471], [-0.0971142, 51.3990998], [-0.0972954, 51.3991694], [-0.0974133, 51.3991272], [-0.0974238, 51.3991318], [-0.0974564, 51.3991031], [-0.0977806, 51.3992109], [-0.0978835, 51.3992354], [-0.098039, 51.3991063], [-0.0981614, 51.3989788], [-0.0983243, 51.3989637], [-0.0985531, 51.3991974], [-0.098843, 51.3994933], [-0.0990402, 51.3994239], [-0.0992103, 51.3996493], [-0.099326, 51.3996354], [-0.0996337, 51.3996134], [-0.0996493, 51.3996898], [-0.0996727, 51.3996883], [-0.0998578, 51.399676], [-0.0998609, 51.3996992], [-0.0999492, 51.399687], [-0.1000021, 51.3996711], [-0.1000139, 51.3996678], [-0.1000335, 51.3996586], [-0.1000511, 51.39965], [-0.1000667, 51.3996404], [-0.1000736, 51.3996351], [-0.1000793, 51.3996314], [-0.1000897, 51.3996259], [-0.1000984, 51.3996219], [-0.1001139, 51.3996155], [-0.1001459, 51.3996033], [-0.1001562, 51.3995993], [-0.1003078, 51.3995498], [-0.1003911, 51.3995222], [-0.1004074, 51.3995222], [-0.1004675, 51.3995289], [-0.1005002, 51.3995332], [-0.1005335, 51.3995376], [-0.1005663, 51.3995429], [-0.1005965, 51.3995478], [-0.1006413, 51.3995555], [-0.1006695, 51.3995607], [-0.1006977, 51.3995659], [-0.1007259, 51.3995715], [-0.1007535, 51.3995773], [-0.1007817, 51.3995831], [-0.1008093, 51.3995893], [-0.1008405, 51.3995958], [-0.1008722, 51.3996021], [-0.1009033, 51.3996086], [-0.1009265, 51.3996137], [-0.1009395, 51.3996168], [-0.1009549, 51.3996247], [-0.1010818, 51.3996591], [-0.1010934, 51.3996612], [-0.101121, 51.3996683], [-0.101127, 51.3996706], [-0.1011785, 51.3996886], [-0.1012688, 51.3997227], [-0.1013778, 51.3997625], [-0.1014707, 51.3997958], [-0.1015321, 51.3998199], [-0.101543, 51.3998252], [-0.1015604, 51.3998337], [-0.1015851, 51.3998496], [-0.1015945, 51.3998561], [-0.1016553, 51.3998203], [-0.1015382, 51.3997591], [-0.1015183, 51.3997496], [-0.1014994, 51.3997401], [-0.1014795, 51.3997305], [-0.1014621, 51.3997223], [-0.1014442, 51.3997144], [-0.1014267, 51.3997065], [-0.1013959, 51.3996914], [-0.1013641, 51.399677], [-0.1013332, 51.3996628], [-0.1013113, 51.399652], [-0.1012895, 51.3996409], [-0.1012676, 51.3996304], [-0.1012522, 51.3996222], [-0.1012364, 51.3996143], [-0.101222, 51.3996058], [-0.1011754, 51.3995794], [-0.1011521, 51.3995654], [-0.1011314, 51.3995526], [-0.1011101, 51.3995402], [-0.1010893, 51.3995279], [-0.1010645, 51.3995135], [-0.1010408, 51.3994992], [-0.101017, 51.3994845], [-0.100933, 51.3994327], [-0.1013637, 51.399183], [-0.1017157, 51.3990368], [-0.1016674, 51.3989903], [-0.1016196, 51.3989445], [-0.1015733, 51.398899], [-0.101524, 51.3988528], [-0.1014743, 51.3988025], [-0.101429, 51.3987574], [-0.101373, 51.3987026], [-0.1013268, 51.3986568], [-0.1012994, 51.3986294], [-0.1012848, 51.3986145], [-0.1012444, 51.3985755], [-0.1013006, 51.3985532], [-0.1013607, 51.3985222], [-0.1013799, 51.3985114], [-0.1015836, 51.3984306], [-0.101613, 51.3984184], [-0.1017859, 51.398346], [-0.101889, 51.3983049], [-0.1019453, 51.398281], [-0.1019907, 51.3982618], [-0.1020485, 51.3982383], [-0.1020879, 51.3982789], [-0.1021223, 51.3983163], [-0.1021379, 51.398333]]]}}]}